Satellite: AO-07
Catalog number: 07530
Epoch time:      06276.96278712
Element set:    0696
Inclination:      101.5570 deg
RA of node:       317.1305 deg
Eccentricity:    0.0012002
Arg of perigee:   035.7395 deg
Mean anomaly:     324.4477 deg
Mean motion:   12.53571566 rev/day
Decay rate:       -2.8e-07 rev/day^2
Epoch rev:           45901
Checksum:              295

Satellite: UO-11
Catalog number: 14781
Epoch time:      06277.61511481
Element set:    0193
Inclination:      098.2079 deg
RA of node:       290.1590 deg
Eccentricity:    0.0008141
Arg of perigee:   275.6350 deg
Mean anomaly:     084.3928 deg
Mean motion:   14.79468089 rev/day
Decay rate:       4.81e-06 rev/day^2
Epoch rev:           21194
Checksum:              318

