DECODE 2-LINE ELSETS WITH THE FOLLOWING KEY:
1 AAAAAU 00  0  0 BBBBB.BBBBBBBB  .CCCCCCCC  00000-0  00000-0 0  DDDZ
2 AAAAA EEE.EEEE FFF.FFFF GGGGGGG HHH.HHHH III.IIII JJ.JJJJJJJJKKKKKZ
KEY: A-CATALOGNUM B-EPOCHTIME C-DECAY D-ELSETNUM E-INCLINATION F-RAAN
G-ECCENTRICITY H-ARGPERIGEE I-MNANOM J-MNMOTION K-ORBITNUM Z-CHECKSUM

TO ALL RADIO AMATEURS BT

AO-07
1 07530U 74089B   06276.96278712 -.00000028  00000-0  10000-3 0 06965
2 07530 101.5570 317.1305 0012002 035.7395 324.4477 12.53571566459014
UO-11
1 14781U 84021B   06277.61511481  .00000481  00000-0  71753-4 0 01931
2 14781 098.2079 290.1590 0008141 275.6350 084.3928 14.79468089211943
